ASTROCAST-0403          
1 55111U 23001DG  26068.82333059  .00013959  00000+0  51317-3 0  9990
2 55111  97.5604 161.3228 0004770 338.0704  22.0330 15.28004949129376
STARLINK-31631          
1 59459U 24068E   26068.93527495 -.00000790  00000+0 -19197-4 0  9996
2 59459  43.0040  29.3820 0000903 243.1247 116.9513 15.27569640108600
