[{"OBJECT_NAME":"ASTROCAST-0403","OBJECT_ID":"2023-001DG","EPOCH":"2026-03-09T19:45:35.762976","MEAN_MOTION":15.28004949,"ECCENTRICITY":0.00047706,"INCLINATION":97.5604,"RA_OF_ASC_NODE":161.3228,"ARG_OF_PERICENTER":338.0704,"MEAN_ANOMALY":22.033,"EPHEMERIS_TYPE":0,"CLASSIFICATION_TYPE":"U","NORAD_CAT_ID":55111,"ELEMENT_SET_NO":999,"REV_AT_EPOCH":12937,"BSTAR":0.0005131719,"MEAN_MOTION_DOT":0.00013959,"MEAN_MOTION_DDOT":0},{"OBJECT_NAME":"STARLINK-31631","OBJECT_ID":"2024-068E","EPOCH":"2026-03-09T22:26:47.756544","MEAN_MOTION":15.2756964,"ECCENTRICITY":9.029e-5,"INCLINATION":43.004,"RA_OF_ASC_NODE":29.382,"ARG_OF_PERICENTER":243.1247,"MEAN_ANOMALY":116.9513,"EPHEMERIS_TYPE":0,"CLASSIFICATION_TYPE":"U","NORAD_CAT_ID":59459,"ELEMENT_SET_NO":999,"REV_AT_EPOCH":10860,"BSTAR":-1.9196613e-5,"MEAN_MOTION_DOT":-7.9e-6,"MEAN_MOTION_DDOT":0}]
